ONEWEB-0656             
1 55817U 23029X   24312.46775392  .00000121  00000+0  26578-3 0  9991
2 55817  87.9297  31.1319 0001440 122.2346 237.8927 13.20771386 83701
ONEWEB-0657             
1 55818U 23029Y   24312.70588170 -.00003128  00000+0 -78468-2 0  9991
2 55818  87.9182  61.6081 0000912 109.4375 250.6856 13.19732300 81557
ONEWEB-0658             
1 55819U 23029Z   24312.54953949  .00000206  00000+0  48174-3 0  9998
2 55819  87.9183  61.5739 0001778  81.7102 278.4232 13.19727956 81545
ONEWEB-0660             
1 55820U 23029AA  24312.71525222  .00000382  00000+0  99652-3 0  9990
2 55820  87.9031  46.2999 0002174  96.2263 263.9115 13.14503918 82351
ONEWEB-0661             
1 55821U 23029AB  24312.29343242 -.00000102  00000+0 -30842-3 0  9992
2 55821  87.9030  46.4520 0002174  99.8351 260.3024 13.14504638 82282
ONEWEB-0662             
1 55822U 23029AC  24312.70890712  .00000251  00000+0  64302-3 0  9999
2 55822  87.9030  46.3770 0001993  93.7499 266.3859 13.14504264 82381
ONEWEB-0663             
1 55823U 23029AD  24312.68520497  .00000085  00000+0  17653-3 0  9999
2 55823  87.9294  31.1481 0002129  92.6780 267.4597 13.20811350 83722
ONEWEB-0664             
1 55824U 23029AE  24312.45510955  .00000065  00000+0  12732-3 0  9994
2 55824  87.9298  31.2093 0002192 109.4792 250.6578 13.20775727 83693
